[{"OBJECT_NAME":"YAOGAN-35 05B","OBJECT_ID":"2022-109B","EPOCH":"2026-03-09T21:18:38.975904","MEAN_MOTION":15.34684086,"ECCENTRICITY":0.00073768,"INCLINATION":34.977,"RA_OF_ASC_NODE":227.0873,"ARG_OF_PERICENTER":346.2223,"MEAN_ANOMALY":13.8293,"EPHEMERIS_TYPE":0,"CLASSIFICATION_TYPE":"U","NORAD_CAT_ID":53761,"ELEMENT_SET_NO":999,"REV_AT_EPOCH":19558,"BSTAR":0.00051483055,"MEAN_MOTION_DOT":0.00017789,"MEAN_MOTION_DDOT":0},{"OBJECT_NAME":"KUIPER-00198","OBJECT_ID":"2026-030G","EPOCH":"2026-03-09T15:03:31.007808","MEAN_MOTION":15.3608915,"ECCENTRICITY":0.0003583,"INCLINATION":51.8806,"RA_OF_ASC_NODE":219.4038,"ARG_OF_PERICENTER":35.8948,"MEAN_ANOMALY":324.2279,"EPHEMERIS_TYPE":0,"CLASSIFICATION_TYPE":"U","NORAD_CAT_ID":67770,"ELEMENT_SET_NO":999,"REV_AT_EPOCH":508,"BSTAR":0.00095567,"MEAN_MOTION_DOT":0.00033885,"MEAN_MOTION_DDOT":0}]
