YAOGAN-35 05B           
1 53761U 22109B   26068.88795111  .00017789  00000+0  51483-3 0  9993
2 53761  34.9770 227.0873 0007377 346.2223  13.8293 15.34684086195588
KUIPER-00198            
1 67770U 26030G   26068.62744222  .00033885  00000+0  95567-3 0  9990
2 67770  51.8806 219.4038 0003583  35.8948 324.2279 15.36089150  5080
